{"type": "FeatureCollection", "features": [{"type": "Feature", "properties": {"norad_id": 24876, "name": "GPS BIIR-2  (PRN 13)", "group": "gnss", "lat": -32.87831263567121, "lon": 80.257858693596, "alt_km": 20219.313142550815, "timestamp": "2025-12-03T04:52:29.879275+00:00", "meta": {"OBJECT_NAME": "GPS BIIR-2  (PRN 13)", "OBJECT_ID": "1997-035A", "EPOCH": "2025-12-02T18:15:55.353312", "MEAN_MOTION": 2.00563438, "ECCENTRICITY": 0.0096668, "INCLINATION": 55.8903, "RA_OF_ASC_NODE": 106.2592, "ARG_OF_PERICENTER": 57.0264, "MEAN_ANOMALY": 303.869, "EPHEMERIS_TYPE": 0, "CLASSIFICATION_TYPE": "U", "NORAD_CAT_ID": 24876, "ELEMENT_SET_NO": 999, "REV_AT_EPOCH": 20801, "BSTAR": 0, "MEAN_MOTION_DOT": 2.2e-07, "MEAN_MOTION_DDOT": 0}, "tle": {"line1": "1 24876U 97035A   25336.76105733  .00000022  00000+0  00000+0 0  9994", "line2": "2 24876  55.8903 106.2592 0096668  57.0264 303.8690  2.00563438208014"}}, "geometry": {"type": "Point", "coordinates": [80.257858693596, -32.87831263567121]}}, {"type": "Feature", "properties": {"norad_id": 26360, "name": "GPS BIIR-4  (PRN 20)", "group": "gnss", "lat": 40.16983169372007, "lon": 63.40561901648159, "alt_km": 20278.847333462563, "timestamp": "2025-12-03T04:52:29.879321+00:00", "meta": {"OBJECT_NAME": "GPS BIIR-4  (PRN 20)", "OBJECT_ID": "2000-025A", "EPOCH": "2025-12-02T20:35:54.014784", "MEAN_MOTION": 2.00568363, "ECCENTRICITY": 0.0038787, "INCLINATION": 55.0394, "RA_OF_ASC_NODE": 27.2378, "ARG_OF_PERICENTER": 241.0277, "MEAN_ANOMALY": 281.8474, "EPHEMERIS_TYPE": 0, "CLASSIFICATION_TYPE": "U", "NORAD_CAT_ID": 26360, "ELEMENT_SET_NO": 999, "REV_AT_EPOCH": 18733, "BSTAR": 0, "MEAN_MOTION_DOT": -7e-07, "MEAN_MOTION_DDOT": 0}, "tle": {"line1": "1 26360U 00025A   25336.85826406 -.00000070  00000+0  00000+0 0  9998", "line2": "2 26360  55.0394  27.2378 0038787 241.0277 281.8474  2.00568363187339"}}, "geometry": {"type": "Point", "coordinates": [63.40561901648159, 40.16983169372007]}}, {"type": "Feature", "properties": {"norad_id": 26407, "name": "GPS BIIR-5  (PRN 22)", "group": "gnss", "lat": -50.37799809321347, "lon": 101.01385900259227, "alt_km": 19975.54802190694, "timestamp": "2025-12-03T04:52:29.879339+00:00", "meta": {"OBJECT_NAME": "GPS BIIR-5  (PRN 22)", "OBJECT_ID": "2000-040A", "EPOCH": "2025-12-02T20:35:05.713728", "MEAN_MOTION": 2.00567701, "ECCENTRICITY": 0.0126556, "INCLINATION": 54.8933, "RA_OF_ASC_NODE": 222.9621, "ARG_OF_PERICENTER": 301.6247, "MEAN_ANOMALY": 60.4206, "EPHEMERIS_TYPE": 0, "CLASSIFICATION_TYPE": "U", "NORAD_CAT_ID": 26407, "ELEMENT_SET_NO": 999, "REV_AT_EPOCH": 18601, "BSTAR": 0, "MEAN_MOTION_DOT": 5.8e-07, "MEAN_MOTION_DDOT": 0}, "tle": {"line1": "1 26407U 00040A   25336.85770502  .00000058  00000+0  00000+0 0  9997", "line2": "2 26407  54.8933 222.9621 0126556 301.6247  60.4206  2.00567701186017"}}, "geometry": {"type": "Point", "coordinates": [101.01385900259227, -50.37799809321347]}}, {"type": "Feature", "properties": {"norad_id": 27663, "name": "GPS BIIR-8  (PRN 16)", "group": "gnss", "lat": 21.374837363493054, "lon": -121.29718037869148, "alt_km": 19824.358389848298, "timestamp": "2025-12-03T04:52:29.879354+00:00", "meta": {"OBJECT_NAME": "GPS BIIR-8  (PRN 16)", "OBJECT_ID": "2003-005A", "EPOCH": "2025-12-01T07:27:05.783040", "MEAN_MOTION": 2.00571429, "ECCENTRICITY": 0.01469845, "INCLINATION": 54.9264, "RA_OF_ASC_NODE": 222.833, "ARG_OF_PERICENTER": 51.6397, "MEAN_ANOMALY": 48.9538, "EPHEMERIS_TYPE": 0, "CLASSIFICATION_TYPE": "U", "NORAD_CAT_ID": 27663, "ELEMENT_SET_NO": 999, "REV_AT_EPOCH": 16734, "BSTAR": 0, "MEAN_MOTION_DOT": 4.8e-07, "MEAN_MOTION_DDOT": 0}, "tle": {"line1": "1 27663U 03005A   25335.31048360  .00000048  00000+0  00000+0 0  9995", "line2": "2 27663  54.9264 222.8330 0146984  51.6397  48.9538  2.00571429167347"}}, "geometry": {"type": "Point", "coordinates": [-121.29718037869148, 21.374837363493054]}}, {"type": "Feature", "properties": {"norad_id": 28190, "name": "GPS BIIR-11 (PRN 19)", "group": "gnss", "lat": -5.573091582216058, "lon": 107.49703351970965, "alt_km": 19911.945130503835, "timestamp": "2025-12-03T04:52:29.879368+00:00", "meta": {"OBJECT_NAME": "GPS BIIR-11 (PRN 19)", "OBJECT_ID": "2004-009A", "EPOCH": "2025-11-26T05:14:39.537024", "MEAN_MOTION": 2.00561394, "ECCENTRICITY": 0.01080929, "INCLINATION": 55.0011, "RA_OF_ASC_NODE": 283.885, "ARG_OF_PERICENTER": 167.3745, "MEAN_ANOMALY": 15.773, "EPHEMERIS_TYPE": 0, "CLASSIFICATION_TYPE": "U", "NORAD_CAT_ID": 28190, "ELEMENT_SET_NO": 999, "REV_AT_EPOCH": 15887, "BSTAR": 0, "MEAN_MOTION_DOT": -2.4e-07, "MEAN_MOTION_DDOT": 0}, "tle": {"line1": "1 28190U 04009A   25330.21851316 -.00000024  00000+0  00000+0 0  9998", "line2": "2 28190  55.0011 283.8850 0108092 167.3745  15.7730  2.00561394158873"}}, "geometry": {"type": "Point", "coordinates": [107.49703351970965, -5.573091582216058]}}, {"type": "Feature", "properties": {"norad_id": 28474, "name": "GPS BIIR-13 (PRN 02)", "group": "gnss", "lat": -47.82365692872797, "lon": -157.1843385643211, "alt_km": 19984.0712578497, "timestamp": "2025-12-03T04:52:29.879382+00:00", "meta": {"OBJECT_NAME": "GPS BIIR-13 (PRN 02)", "OBJECT_ID": "2004-045A", "EPOCH": "2025-12-02T14:51:16.747776", "MEAN_MOTION": 2.00568864, "ECCENTRICITY": 0.017054, "INCLINATION": 55.2456, "RA_OF_ASC_NODE": 332.8132, "ARG_OF_PERICENTER": 308.8127, "MEAN_ANOMALY": 235.5488, "EPHEMERIS_TYPE": 0, "CLASSIFICATION_TYPE": "U", "NORAD_CAT_ID": 28474, "ELEMENT_SET_NO": 999, "REV_AT_EPOCH": 15448, "BSTAR": 0, "MEAN_MOTION_DOT": -6.2e-07, "MEAN_MOTION_DDOT": 0}, "tle": {"line1": "1 28474U 04045A   25336.61894384 -.00000062  00000+0  00000+0 0  9997", "line2": "2 28474  55.2456 332.8132 0170540 308.8127 235.5488  2.00568864154488"}}, "geometry": {"type": "Point", "coordinates": [-157.1843385643211, -47.82365692872797]}}, {"type": "Feature", "properties": {"norad_id": 28874, "name": "GPS BIIRM-1 (PRN 17)", "group": "gnss", "lat": -18.978769121199445, "lon": 114.96815656695755, "alt_km": 20182.24119157109, "timestamp": "2025-12-03T04:52:29.879412+00:00", "meta": {"OBJECT_NAME": "GPS BIIRM-1 (PRN 17)", "OBJECT_ID": "2005-038A", "EPOCH": "2025-12-02T16:12:27.400896", "MEAN_MOTION": 2.00548806, "ECCENTRICITY": 0.01328204, "INCLINATION": 55.0411, "RA_OF_ASC_NODE": 281.1063, "ARG_OF_PERICENTER": 293.4087, "MEAN_ANOMALY": 250.3584, "EPHEMERIS_TYPE": 0, "CLASSIFICATION_TYPE": "U", "NORAD_CAT_ID": 28874, "ELEMENT_SET_NO": 999, "REV_AT_EPOCH": 14789, "BSTAR": 0, "MEAN_MOTION_DOT": -4.3e-07, "MEAN_MOTION_DDOT": 0}, "tle": {"line1": "1 28874U 05038A   25336.67531714 -.00000043  00000+0  00000+0 0  9994", "line2": "2 28874  55.0411 281.1063 0132820 293.4087 250.3584  2.00548806147896"}}, "geometry": {"type": "Point", "coordinates": [114.96815656695755, -18.978769121199445]}}, {"type": "Feature", "properties": {"norad_id": 28899, "name": "INMARSAT 4-F2 (SOUTHPAN/PRN 122)", "group": "gnss", "lat": -4.407222283754946, "lon": -71.15364291353804, "alt_km": 35775.29385749344, "timestamp": "2025-12-03T04:52:29.879427+00:00", "meta": {"OBJECT_NAME": "INMARSAT 4-F2 (SOUTHPAN/PRN 122)", "OBJECT_ID": "2005-044A", "EPOCH": "2025-12-02T16:07:28.759296", "MEAN_MOTION": 1.00271077, "ECCENTRICITY": 0.0003419, "INCLINATION": 4.838, "RA_OF_ASC_NODE": 43.6557, "ARG_OF_PERICENTER": 208.5779, "MEAN_ANOMALY": 204.9087, "EPHEMERIS_TYPE": 0, "CLASSIFICATION_TYPE": "U", "NORAD_CAT_ID": 28899, "ELEMENT_SET_NO": 999, "REV_AT_EPOCH": 7355, "BSTAR": 0, "MEAN_MOTION_DOT": -2.43e-06, "MEAN_MOTION_DDOT": 0}, "tle": {"line1": "1 28899U 05044A   25336.67186064 -.00000243  00000+0  00000+0 0  9994", "line2": "2 28899   4.8380  43.6557 0003419 208.5779 204.9087  1.00271077 73551"}}, "geometry": {"type": "Point", "coordinates": [-71.15364291353804, -4.407222283754946]}}, {"type": "Feature", "properties": {"norad_id": 29486, "name": "GPS BIIRM-2 (PRN 31)", "group": "gnss", "lat": 50.17918153682289, "lon": -79.14412122691976, "alt_km": 20023.266851422653, "timestamp": "2025-12-03T04:52:29.879441+00:00", "meta": {"OBJECT_NAME": "GPS BIIRM-2 (PRN 31)", "OBJECT_ID": "2006-042A", "EPOCH": "2025-12-02T13:41:33.602784", "MEAN_MOTION": 2.00554444, "ECCENTRICITY": 0.0107363, "INCLINATION": 54.6926, "RA_OF_ASC_NODE": 159.1445, "ARG_OF_PERICENTER": 51.7169, "MEAN_ANOMALY": 320.193, "EPHEMERIS_TYPE": 0, "CLASSIFICATION_TYPE": "U", "NORAD_CAT_ID": 29486, "ELEMENT_SET_NO": 999, "REV_AT_EPOCH": 14045, "BSTAR": 0, "MEAN_MOTION_DOT": 1.17e-06, "MEAN_MOTION_DDOT": 0}, "tle": {"line1": "1 29486U 06042A   25336.57052781  .00000117  00000+0  00000+0 0  9992", "line2": "2 29486  54.6926 159.1445 0107363  51.7169 320.1930  2.00554444140451"}}, "geometry": {"type": "Point", "coordinates": [-79.14412122691976, 50.17918153682289]}}, {"type": "Feature", "properties": {"norad_id": 29601, "name": "GPS BIIRM-3 (PRN 12)", "group": "gnss", "lat": 10.923229700668553, "lon": 34.010930662506716, "alt_km": 20135.07229764429, "timestamp": "2025-12-03T04:52:29.879453+00:00", "meta": {"OBJECT_NAME": "GPS BIIRM-3 (PRN 12)", "OBJECT_ID": "2006-052A", "EPOCH": "2025-12-01T23:28:25.341312", "MEAN_MOTION": 2.0057269, "ECCENTRICITY": 0.0087496, "INCLINATION": 54.9731, "RA_OF_ASC_NODE": 221.8254, "ARG_OF_PERICENTER": 87.3285, "MEAN_ANOMALY": 273.7543, "EPHEMERIS_TYPE": 0, "CLASSIFICATION_TYPE": "U", "NORAD_CAT_ID": 29601, "ELEMENT_SET_NO": 999, "REV_AT_EPOCH": 13945, "BSTAR": 0, "MEAN_MOTION_DOT": 5.5e-07, "MEAN_MOTION_DDOT": 0}, "tle": {"line1": "1 29601U 06052A   25335.97807108  .00000055  00000+0  00000+0 0  9997", "line2": "2 29601  54.9731 221.8254 0087496  87.3285 273.7543  2.00572690139454"}}, "geometry": {"type": "Point", "coordinates": [34.010930662506716, 10.923229700668553]}}]}